[
    {
        "CCSDS_OMM_VERS": "2.0",
        "COMMENT": "GENERATED VIA SPACE-TRACK.ORG API",
        "CREATION_DATE": "2023-07-12T06:16:12",
        "ORIGINATOR": "18 SPCS",
        "OBJECT_NAME": "TIROS 1",
        "OBJECT_ID": "1960-002B",
        "CENTER_NAME": "EARTH",
        "REF_FRAME": "TEME",
        "TIME_SYSTEM": "UTC",
        "MEAN_ELEMENT_THEORY": "SGP4",
        "EPOCH": "2023-07-12T02:50:02.639040",
        "MEAN_MOTION": "14.75401082",
        "ECCENTRICITY": "0.00237440",
        "INCLINATION": "48.3801",
        "RA_OF_ASC_NODE": "62.3237",
        "ARG_OF_PERICENTER": "344.2148",
        "MEAN_ANOMALY": "15.8021",
        "EPHEMERIS_TYPE": "0",
        "CLASSIFICATION_TYPE": "U",
        "NORAD_CAT_ID": "29",
        "ELEMENT_SET_NO": "999",
        "REV_AT_EPOCH": "38389",
        "BSTAR": "0.00012020000000",
        "MEAN_MOTION_DOT": "0.00000618",
        "MEAN_MOTION_DDOT": "0.0000000000000",
        "SEMIMAJOR_AXIS": "7022.015",
        "PERIOD": "97.601",
        "APOAPSIS": "660.553",
        "PERIAPSIS": "627.207",
        "OBJECT_TYPE": "PAYLOAD",
        "RCS_SIZE": "MEDIUM",
        "COUNTRY_CODE": "US",
        "LAUNCH_DATE": "1960-04-01",
        "SITE": "AFETR",
        "DECAY_DATE": null,
        "FILE": "3955597",
        "GP_ID": "234859241",
        "TLE_LINE0": "0 TIROS 1",
        "TLE_LINE1": "1    29U 60002B   23193.11808610  .00000618  00000-0  12020-3 0  9995",
        "TLE_LINE2": "2    29  48.3801  62.3237 0023744 344.2148  15.8021 14.75401082383896"
    },
    {
        "CCSDS_OMM_VERS": "2.0",
        "COMMENT": "GENERATED VIA SPACE-TRACK.ORG API",
        "CREATION_DATE": "2023-07-12T22:36:13",
        "ORIGINATOR": "18 SPCS",
        "OBJECT_NAME": "TRANSIT 2A",
        "OBJECT_ID": "1960-007A",
        "CENTER_NAME": "EARTH",
        "REF_FRAME": "TEME",
        "TIME_SYSTEM": "UTC",
        "MEAN_ELEMENT_THEORY": "SGP4",
        "EPOCH": "2023-07-12T16:13:19.964064",
        "MEAN_MOTION": "14.34252574",
        "ECCENTRICITY": "0.02589560",
        "INCLINATION": "66.6952",
        "RA_OF_ASC_NODE": "308.0529",
        "ARG_OF_PERICENTER": "221.3213",
        "MEAN_ANOMALY": "136.8041",
        "EPHEMERIS_TYPE": "0",
        "CLASSIFICATION_TYPE": "U",
        "NORAD_CAT_ID": "45",
        "ELEMENT_SET_NO": "999",
        "REV_AT_EPOCH": "28330",
        "BSTAR": "0.00016732000000",
        "MEAN_MOTION_DOT": "0.00000577",
        "MEAN_MOTION_DDOT": "0.0000000000000",
        "SEMIMAJOR_AXIS": "7155.688",
        "PERIOD": "100.401",
        "APOAPSIS": "962.854",
        "PERIAPSIS": "592.252",
        "OBJECT_TYPE": "PAYLOAD",
        "RCS_SIZE": "MEDIUM",
        "COUNTRY_CODE": "US",
        "LAUNCH_DATE": "1960-06-22",
        "SITE": "AFETR",
        "DECAY_DATE": null,
        "FILE": "3956342",
        "GP_ID": "234876976",
        "TLE_LINE0": "0 TRANSIT 2A",
        "TLE_LINE1": "1    45U 60007A   23193.67592551  .00000577  00000-0  16732-3 0  9991",
        "TLE_LINE2": "2    45  66.6952 308.0529 0258956 221.3213 136.8041 14.34252574283307"
    },
    {
        "CCSDS_OMM_VERS": "2.0",
        "COMMENT": "GENERATED VIA SPACE-TRACK.ORG API",
        "CREATION_DATE": "2023-07-11T22:46:13",
        "ORIGINATOR": "18 SPCS",
        "OBJECT_NAME": "SOLRAD 1 (GREB)",
        "OBJECT_ID": "1960-007B",
        "CENTER_NAME": "EARTH",
        "REF_FRAME": "TEME",
        "TIME_SYSTEM": "UTC",
        "MEAN_ELEMENT_THEORY": "SGP4",
        "EPOCH": "2023-07-11T15:37:07.372992",
        "MEAN_MOTION": "14.50626539",
        "ECCENTRICITY": "0.02044980",
        "INCLINATION": "66.6894",
        "RA_OF_ASC_NODE": "260.7106",
        "ARG_OF_PERICENTER": "14.2561",
        "MEAN_ANOMALY": "346.4198",
        "EPHEMERIS_TYPE": "0",
        "CLASSIFICATION_TYPE": "U",
        "NORAD_CAT_ID": "46",
        "ELEMENT_SET_NO": "999",
        "REV_AT_EPOCH": "30132",
        "BSTAR": "0.00012812000000",
        "MEAN_MOTION_DOT": "0.00000543",
        "MEAN_MOTION_DDOT": "0.0000000000000",
        "SEMIMAJOR_AXIS": "7101.740",
        "PERIOD": "99.267",
        "APOAPSIS": "868.834",
        "PERIAPSIS": "578.376",
        "OBJECT_TYPE": "PAYLOAD",
        "RCS_SIZE": "MEDIUM",
        "COUNTRY_CODE": "US",
        "LAUNCH_DATE": "1960-06-22",
        "SITE": "AFETR",
        "DECAY_DATE": null,
        "FILE": "3955535",
        "GP_ID": "234857595",
        "TLE_LINE0": "0 SOLRAD 1 (GREB)",
        "TLE_LINE1": "1    46U 60007B   23192.65077978  .00000543  00000-0  12812-3 0  9998",
        "TLE_LINE2": "2    46  66.6894 260.7106 0204498  14.2561 346.4198 14.50626539301324"
    },
    {
        "CCSDS_OMM_VERS": "2.0",
        "COMMENT": "GENERATED VIA SPACE-TRACK.ORG API",
        "CREATION_DATE": "2023-07-12T14:46:12",
        "ORIGINATOR": "18 SPCS",
        "OBJECT_NAME": "THOR ABLESTAR R\/B",
        "OBJECT_ID": "1960-007C",
        "CENTER_NAME": "EARTH",
        "REF_FRAME": "TEME",
        "TIME_SYSTEM": "UTC",
        "MEAN_ELEMENT_THEORY": "SGP4",
        "EPOCH": "2023-07-12T07:24:47.011680",
        "MEAN_MOTION": "14.42892723",
        "ECCENTRICITY": "0.02288860",
        "INCLINATION": "66.6658",
        "RA_OF_ASC_NODE": "39.5549",
        "ARG_OF_PERICENTER": "205.5013",
        "MEAN_ANOMALY": "153.4661",
        "EPHEMERIS_TYPE": "0",
        "CLASSIFICATION_TYPE": "U",
        "NORAD_CAT_ID": "47",
        "ELEMENT_SET_NO": "999",
        "REV_AT_EPOCH": "29661",
        "BSTAR": "0.00012551000000",
        "MEAN_MOTION_DOT": "0.00000463",
        "MEAN_MOTION_DDOT": "0.0000000000000",
        "SEMIMAJOR_AXIS": "7127.094",
        "PERIOD": "99.800",
        "APOAPSIS": "912.088",
        "PERIAPSIS": "585.830",
        "OBJECT_TYPE": "ROCKET BODY",
        "RCS_SIZE": "LARGE",
        "COUNTRY_CODE": "US",
        "LAUNCH_DATE": "1960-06-22",
        "SITE": "AFETR",
        "DECAY_DATE": null,
        "FILE": "3956036",
        "GP_ID": "234869418",
        "TLE_LINE0": "0 THOR ABLESTAR R\/B",
        "TLE_LINE1": "1    47U 60007C   23193.30887745  .00000463  00000-0  12551-3 0  9994",
        "TLE_LINE2": "2    47  66.6658  39.5549 0228886 205.5013 153.4661 14.42892723296617"
    },
    {
        "CCSDS_OMM_VERS": "2.0",
        "COMMENT": "GENERATED VIA SPACE-TRACK.ORG API",
        "CREATION_DATE": "2023-07-12T14:36:12",
        "ORIGINATOR": "18 SPCS",
        "OBJECT_NAME": "DELTA 1 R\/B",
        "OBJECT_ID": "1960-009B",
        "CENTER_NAME": "EARTH",
        "REF_FRAME": "TEME",
        "TIME_SYSTEM": "UTC",
        "MEAN_ELEMENT_THEORY": "SGP4",
        "EPOCH": "2023-07-12T12:04:16.724640",
        "MEAN_MOTION": "12.20129713",
        "ECCENTRICITY": "0.01127510",
        "INCLINATION": "47.2296",
        "RA_OF_ASC_NODE": "244.9841",
        "ARG_OF_PERICENTER": "63.8701",
        "MEAN_ANOMALY": "297.3639",
        "EPHEMERIS_TYPE": "0",
        "CLASSIFICATION_TYPE": "U",
        "NORAD_CAT_ID": "50",
        "ELEMENT_SET_NO": "999",
        "REV_AT_EPOCH": "80743",
        "BSTAR": "0.00005856400000",
        "MEAN_MOTION_DOT": "-0.00000080",
        "MEAN_MOTION_DDOT": "0.0000000000000",
        "SEMIMAJOR_AXIS": "7970.113",
        "PERIOD": "118.020",
        "APOAPSIS": "1681.842",
        "PERIAPSIS": "1502.115",
        "OBJECT_TYPE": "ROCKET BODY",
        "RCS_SIZE": "MEDIUM",
        "COUNTRY_CODE": "US",
        "LAUNCH_DATE": "1960-08-12",
        "SITE": "AFETR",
        "DECAY_DATE": null,
        "FILE": "3955984",
        "GP_ID": "234868743",
        "TLE_LINE0": "0 DELTA 1 R\/B",
        "TLE_LINE1": "1    50U 60009B   23193.50297135 -.00000080  00000-0  58564-4 0  9991",
        "TLE_LINE2": "2    50  47.2296 244.9841 0112751  63.8701 297.3639 12.20129713807430"
    },
    {
        "CCSDS_OMM_VERS": "2.0",
        "COMMENT": "GENERATED VIA SPACE-TRACK.ORG API",
        "CREATION_DATE": "2023-07-12T06:36:13",
        "ORIGINATOR": "18 SPCS",
        "OBJECT_NAME": "ECHO 1 DEB (METAL OBJ)",
        "OBJECT_ID": "1960-009C",
        "CENTER_NAME": "EARTH",
        "REF_FRAME": "TEME",
        "TIME_SYSTEM": "UTC",
        "MEAN_ELEMENT_THEORY": "SGP4",
        "EPOCH": "2023-07-12T03:29:41.455680",
        "MEAN_MOTION": "12.18303488",
        "ECCENTRICITY": "0.01080790",
        "INCLINATION": "47.2127",
        "RA_OF_ASC_NODE": "123.3334",
        "ARG_OF_PERICENTER": "252.9936",
        "MEAN_ANOMALY": "105.8986",
        "EPHEMERIS_TYPE": "0",
        "CLASSIFICATION_TYPE": "U",
        "NORAD_CAT_ID": "51",
        "ELEMENT_SET_NO": "999",
        "REV_AT_EPOCH": "80058",
        "BSTAR": "-0.00056280000000",
        "MEAN_MOTION_DOT": "-0.00000142",
        "MEAN_MOTION_DDOT": "0.0000000000000",
        "SEMIMAJOR_AXIS": "7978.076",
        "PERIOD": "118.197",
        "APOAPSIS": "1686.168",
        "PERIAPSIS": "1513.715",
        "OBJECT_TYPE": "DEBRIS",
        "RCS_SIZE": "MEDIUM",
        "COUNTRY_CODE": "US",
        "LAUNCH_DATE": "1960-08-12",
        "SITE": "AFETR",
        "DECAY_DATE": null,
        "FILE": "3955729",
        "GP_ID": "234862512",
        "TLE_LINE0": "0 ECHO 1 DEB (METAL OBJ)",
        "TLE_LINE1": "1    51U 60009C   23193.14561870 -.00000142  00000-0 -56280-3 0  9994",
        "TLE_LINE2": "2    51  47.2127 123.3334 0108079 252.9936 105.8986 12.18303488800587"
    }]